# Made by eph2tle, compiled Dec  1 2019 09:55:14
# Run at Fri Dec  6 17:23:35 2019
#
#    The following TLEs (Two-Line Elements) were generated by fitting
# a numerically-integrated ephemeris,  based on the orbit given below,
# to the SDP4/SGP4 models.  Each TLE is good for the interval between
# its epoch and the epoch of the subsequent TLE (usually one day).
# The maximum deviation between the numerically integrated ephemerides
# and the TLE-based ephemeris, in kilometers,  is given for each TLE
# as the "worst residual".
#
#    This fitting is done using the 'eph2tle' code packaged with Find_Orb.
# The code has details on how the TLEs were computed :
#
#    https://github.com/Bill-Gray/find_orb/eph2tle.cpp
#
#    Be warned:  the error given is that between the numerically
# integrated ephems and the TLE model.  There will usually be at
# least some additional difference between the ephems and the actual
# motion of the satellite,  especially if the ephemerides are based
# on a short arc.  If the following orbital elements say something
# like "[based on] 10 observations 2015 Jan. 1-13",  and the TLEs
# are for 2015 May,  the extrapolation may be tenuous at best.  If
# your application requires a specific level of accuracy,  you may
# want to contact me;  I can give you some idea as to the fit of the
# underlying data (and possibly TLEs based on newer data).
#
#   You can usually find the underlying observational data,  and the
# fitted orbit,  residuals,  ephemerides,  and sometimes some comments
# about the object,  among the pages listed at
#
#    https://www.projectpluto.com/pluto/mpecs/pseudo.htm
#
#    Also,  if you use a TLE outside the "correct" time range (between
# its MJD and that of the next TLE),  all bets are off.  I've carefully
# computed and minimized the worst error over the "correct" time frame,
# but the ephemeris may (or may not) diverge wildly outside of it.
#
# Ephem range: 58757.000000 58880.000000 1.000000
# Created Fri Dec  6 17:23:25 2019
# Ephemeris start:  1 Oct 2019  0:00:00
# Ephemeris end:    1 Feb 2020  0:00:00
# Times are all TDT
# Positions/velocities are in equatorial J2000
# Orbital elements:  C1JH4M2
#    Perigee 2019 Dec 7.187687 +/- 0.000105 TT =  4:30:16 (JD 2458824.687687)
# Epoch 2019 Dec  7.0 TT = JDT 2458824.5                        Gray
# M 328.7709252492 +/- 0.0036         (J2000 equator)
# n 166.3893406356 +/- 0.102          Peri.  266.6369889 +/- 0.015
# a 70662.094411 +/- 29               Node   339.6830554 +/- 0.0007
# e   0.812087298 +/- 7.95e-5         Incl.   19.6278233 +/- 0.0008
# P3115.53m/2.164d           H 34.3   G  0.15   U 11.2  
# q 13278.305063 +/- 11    Q 128045.88375 +/- 47
# From 17 observations 2019 Dec. 6 (16.5 hr); mean residual 0".400
#
# 1 NoradU COSPAR   Epoch.epoch     dn/dt/2  d2n/dt2/6 BSTAR    T El# C
# 2 NoradU Inclina RAAscNode Eccent  ArgPeri MeanAno  MeanMotion Rev# C

# Worst residual: 6.66 km
# MJD 58757.000000 (2019 Oct  1  0:00)
C1JH4M2
1 99999U 00000    19274.49919926  .00000000  00000-0  00000-0 0  7052
2 99999 019.7743 341.0344 8077730 263.9787 068.9652 00.46207563    00

# Worst residual: 5.93 km
# MJD 58758.000000 (2019 Oct  2  0:00)
C1JH4M2
1 99999U 00000    19275.49919926  .00000000  00000-0  00000-0 0  7053
2 99999 019.7739 341.0472 8077111 263.9850 235.2821 00.46204894    02

# Worst residual: 12.65 km
# MJD 58759.000000 (2019 Oct  3  0:00)
C1JH4M2
1 99999U 00000    19276.49919926  .00000000  00000-0  00000-0 0  7054
2 99999 019.7746 341.0213 8077980 264.0397 041.5931 00.46192521    08

# Worst residual: 1.32 km
# MJD 58760.000000 (2019 Oct  4  0:00)
C1JH4M2
1 99999U 00000    19277.49919926  .00000000  00000-0  00000-0 0  7055
2 99999 019.7720 341.0055 8078002 264.0677 207.9489 00.46210412    07

# Worst residual: 11.79 km
# MJD 58761.000000 (2019 Oct  5  0:00)
C1JH4M2
1 99999U 00000    19278.49919926  .00000000  00000-0  00000-0 0  7056
2 99999 019.7731 340.9776 8078496 264.1167 014.2761 00.46200196    09

# Worst residual: 2.12 km
# MJD 58762.000000 (2019 Oct  6  0:00)
C1JH4M2
1 99999U 00000    19279.49919926  .00000000  00000-0  00000-0 0  7057
2 99999 019.7695 340.9543 8078808 264.1590 180.6110 00.46211289    08

# Worst residual: 4.66 km
# MJD 58763.000000 (2019 Oct  7  0:00)
C1JH4M2
1 99999U 00000    19280.49919926  .00000000  00000-0  00000-0 0  7059
2 99999 019.7703 340.9252 8078468 264.2113 346.9223 00.46218557    06

# Worst residual: 1.38 km
# MJD 58764.000000 (2019 Oct  8  0:00)
C1JH4M2
1 99999U 00000    19281.49919926  .00000000  00000-0  00000-0 0  7050
2 99999 019.7672 340.9027 8079291 264.2565 153.2506 00.46214423    08

# Worst residual: 8.71 km
# MJD 58765.000000 (2019 Oct  9  0:00)
C1JH4M2
1 99999U 00000    19282.49919926  .00000000  00000-0  00000-0 0  7051
2 99999 019.7669 340.8957 8077801 264.2832 319.5621 00.46213478    01

# Worst residual: 2.93 km
# MJD 58766.000000 (2019 Oct 10  0:00)
C1JH4M2
1 99999U 00000    19283.49919926  .00000000  00000-0  00000-0 0  7052
2 99999 019.7641 340.8639 8079009 264.3347 125.8896 00.46219875    01

# Worst residual: 4.99 km
# MJD 58767.000000 (2019 Oct 11  0:00)
C1JH4M2
1 99999U 00000    19284.49919926  .00000000  00000-0  00000-0 0  7053
2 99999 019.7631 340.8884 8076765 264.3218 292.2535 00.46204780    03

# Worst residual: 8.52 km
# MJD 58768.000000 (2019 Oct 12  0:00)
C1JH4M2
1 99999U 00000    19285.49919926  .00000000  00000-0  00000-0 0  7054
2 99999 019.7592 340.8368 8077936 264.3897 098.5646 00.46217040    03

# Worst residual: 9.79 km
# MJD 58769.000000 (2019 Oct 13  0:00)
C1JH4M2
1 99999U 00000    19286.49919926  .00000000  00000-0  00000-0 0  7055
2 99999 019.7586 340.8476 8077970 264.3890 264.9415 00.46208354    08

# Worst residual: 7.75 km
# MJD 58770.000000 (2019 Oct 14  0:00)
C1JH4M2
1 99999U 00000    19287.49919926  .00000000  00000-0  00000-0 0  7056
2 99999 019.7556 340.8019 8078617 264.4641 071.2525 00.46201056    05

# Worst residual: 7.23 km
# MJD 58771.000000 (2019 Oct 15  0:00)
C1JH4M2
1 99999U 00000    19288.49919926  .00000000  00000-0  00000-0 0  7057
2 99999 019.7518 340.7679 8082139 264.5133 237.5217 00.46207987    09

# Worst residual: 13.70 km
# MJD 58772.000000 (2019 Oct 16  0:00)
C1JH4M2
1 99999U 00000    19289.49919926  .00000000  00000-0  00000-0 0  7058
2 99999 019.7531 340.7328 8084473 264.5869 043.8653 00.46200978    09

# Worst residual: 5.93 km
# MJD 58773.000000 (2019 Oct 17  0:00)
C1JH4M2
1 99999U 00000    19290.49919926  .00000000  00000-0  00000-0 0  7050
2 99999 019.7485 340.7027 8083826 264.6593 210.0502 00.46189945    00

# Worst residual: 15.00 km
# MJD 58774.000000 (2019 Oct 18  0:00)
C1JH4M2
1 99999U 00000    19291.49919926  .00000000  00000-0  00000-0 0  7051
2 99999 019.7498 340.6731 8086257 264.7359 016.3157 00.46197558    09

# Worst residual: 5.69 km
# MJD 58775.000000 (2019 Oct 19  0:00)
C1JH4M2
1 99999U 00000    19292.49919926  .00000000  00000-0  00000-0 0  7052
2 99999 019.7481 340.6690 8082296 264.7810 182.6351 00.46199229    06

# Worst residual: 10.55 km
# MJD 58776.000000 (2019 Oct 20  0:00)
C1JH4M2
1 99999U 00000    19293.49919926  .00000000  00000-0  00000-0 0  7053
2 99999 019.7477 340.6789 8079229 264.8001 348.8495 00.46202491    06

# Worst residual: 3.98 km
# MJD 58777.000000 (2019 Oct 21  0:00)
C1JH4M2
1 99999U 00000    19294.49919926  .00000000  00000-0  00000-0 0  7054
2 99999 019.7437 340.6571 8078692 264.8434 155.2127 00.46218306    08

# Worst residual: 6.72 km
# MJD 58778.000000 (2019 Oct 22  0:00)
C1JH4M2
1 99999U 00000    19295.49919926  .00000000  00000-0  00000-0 0  7055
2 99999 019.7424 340.6682 8075199 264.8429 321.5310 00.46209935    00

# Worst residual: 5.29 km
# MJD 58779.000000 (2019 Oct 23  0:00)
C1JH4M2
1 99999U 00000    19296.49919926  .00000000  00000-0  00000-0 0  7056
2 99999 019.7375 340.6330 8076811 264.8947 127.8414 00.46215535    07

# Worst residual: 4.74 km
# MJD 58780.000000 (2019 Oct 24  0:00)
C1JH4M2
1 99999U 00000    19297.49919926  .00000000  00000-0  00000-0 0  7057
2 99999 019.7358 340.6310 8077019 264.9142 294.1804 00.46214612    01

# Worst residual: 10.39 km
# MJD 58781.000000 (2019 Oct 25  0:00)
C1JH4M2
1 99999U 00000    19298.49919926  .00000000  00000-0  00000-0 0  7058
2 99999 019.7325 340.5848 8078312 264.9799 100.4963 00.46215301    06

# Worst residual: 7.51 km
# MJD 58782.000000 (2019 Oct 26  0:00)
C1JH4M2
1 99999U 00000    19299.49919926  .00000000  00000-0  00000-0 0  7059
2 99999 019.7321 340.5920 8078283 265.0004 266.7712 00.46205011    06

# Worst residual: 5.93 km
# MJD 58783.000000 (2019 Oct 27  0:00)
C1JH4M2
1 99999U 00000    19300.49919926  .00000000  00000-0  00000-0 0  7052
2 99999 019.7309 340.5522 8078919 265.0765 073.0892 00.46211490    06

# Worst residual: 7.38 km
# MJD 58784.000000 (2019 Oct 28  0:00)
C1JH4M2
1 99999U 00000    19301.49919926  .00000000  00000-0  00000-0 0  7053
2 99999 019.7305 340.5691 8078102 265.0853 239.3619 00.46200750    02

# Worst residual: 15.72 km
# MJD 58785.000000 (2019 Oct 29  0:00)
C1JH4M2
1 99999U 00000    19302.49919926  .00000000  00000-0  00000-0 0  7054
2 99999 019.7313 340.5422 8079403 265.1468 045.6735 00.46195673    05

# Worst residual: 3.50 km
# MJD 58786.000000 (2019 Oct 30  0:00)
C1JH4M2
1 99999U 00000    19303.49919926  .00000000  00000-0  00000-0 0  7055
2 99999 019.7291 340.5371 8078537 265.1698 212.0049 00.46204912    00

# Worst residual: 16.43 km
# MJD 58787.000000 (2019 Oct 31  0:00)
C1JH4M2
1 99999U 00000    19304.49919926  .00000000  00000-0  00000-0 0  7056
2 99999 019.7301 340.5138 8079904 265.2172 018.3248 00.46182782    08

# Worst residual: 1.95 km
# MJD 58788.000000 (2019 Nov  1  0:00)
C1JH4M2
1 99999U 00000    19305.49919926  .00000000  00000-0  00000-0 0  7057
2 99999 019.7267 340.4932 8079031 265.2553 184.6704 00.46207222    05

# Worst residual: 12.65 km
# MJD 58789.000000 (2019 Nov  2  0:00)
C1JH4M2
1 99999U 00000    19306.49919926  .00000000  00000-0  00000-0 0  7058
2 99999 019.7276 340.4657 8079794 265.3032 350.9928 00.46199815    02
